{
  "type": "Feature",
  "properties": {
    "name": "Ranchi District",
    "scope": "JOHAR_RANCHI_V1"
  },
  "geometry": {
    "type": "Polygon",
    "coordinates": [[
      [85.8670606977255,23.430090336051986],
      [85.84112360114803,23.1943283976327],
      [86.24020965780804,22.996071877584942],
      [86.16147955019308,22.83784918087175],
      [86.16097795117446,22.837106325391293],
      [85.90905744516185,22.868670059545337],
      [85.9081041904089,22.868707125663594],
      [85.75652950894481,23.155920537195655],
      [85.15653840194658,23.28552211187081],
      [85.1562554391505,23.285124876712086],
      [85.18042738952606,23.458569580117096],
      [85.05229205226979,23.551778055750702],
      [85.05827780566528,23.642745155919503],
      [84.97124386980819,23.571319002690867],
      [84.96061202872161,23.580668299024087],
      [84.94905900117112,23.597924897580725],
      [84.94539974704877,23.5980433553132],
      [84.94422281519118,23.5992069000462],
      [84.94370106198643,23.59972270894508],
      [84.94403226358595,23.600541822649234],
      [85.05375392933693,23.71351010809952],
      [85.8670606977255,23.430090336051986]
    ]]
  }
}
